[{"OBJECT_NAME":"STARLINK-37319","OBJECT_ID":"2026-081H","EPOCH":"2026-04-23T17:04:42.159648","MEAN_MOTION":15.83852969,"ECCENTRICITY":7.646e-5,"INCLINATION":53.16,"RA_OF_ASC_NODE":195.2345,"ARG_OF_PERICENTER":17.2118,"MEAN_ANOMALY":342.8932,"EPHEMERIS_TYPE":0,"CLASSIFICATION_TYPE":"U","NORAD_CAT_ID":68706,"ELEMENT_SET_NO":999,"REV_AT_EPOCH":149,"BSTAR":-0.0036822321,"MEAN_MOTION_DOT":-0.00766682,"MEAN_MOTION_DDOT":0},{"OBJECT_NAME":"STARLINK-37112","OBJECT_ID":"2026-081J","EPOCH":"2026-04-23T17:06:47.951136","MEAN_MOTION":15.83767033,"ECCENTRICITY":8.58e-5,"INCLINATION":53.1599,"RA_OF_ASC_NODE":195.2437,"ARG_OF_PERICENTER":17.1786,"MEAN_ANOMALY":342.9267,"EPHEMERIS_TYPE":0,"CLASSIFICATION_TYPE":"U","NORAD_CAT_ID":68707,"ELEMENT_SET_NO":999,"REV_AT_EPOCH":149,"BSTAR":-0.0030999,"MEAN_MOTION_DOT":-0.00651415,"MEAN_MOTION_DDOT":0},{"OBJECT_NAME":"STARLINK-37340","OBJECT_ID":"2026-081K","EPOCH":"2026-04-23T14:03:52.758720","MEAN_MOTION":15.84161496,"ECCENTRICITY":0.00013906,"INCLINATION":53.1598,"RA_OF_ASC_NODE":195.8754,"ARG_OF_PERICENTER":50.6317,"MEAN_ANOMALY":309.483,"EPHEMERIS_TYPE":0,"CLASSIFICATION_TYPE":"U","NORAD_CAT_ID":68708,"ELEMENT_SET_NO":999,"REV_AT_EPOCH":147,"BSTAR":-0.0034238261,"MEAN_MOTION_DOT":-0.0072701,"MEAN_MOTION_DDOT":0},{"OBJECT_NAME":"STARLINK-37303","OBJECT_ID":"2026-081L","EPOCH":"2026-04-23T12:31:10.777728","MEAN_MOTION":15.8482041,"ECCENTRICITY":0.00025032,"INCLINATION":53.1598,"RA_OF_ASC_NODE":196.1833,"ARG_OF_PERICENTER":356.5258,"MEAN_ANOMALY":3.5749,"EPHEMERIS_TYPE":0,"CLASSIFICATION_TYPE":"U","NORAD_CAT_ID":68709,"ELEMENT_SET_NO":999,"REV_AT_EPOCH":146,"BSTAR":-0.0033667301,"MEAN_MOTION_DOT":-0.00737452,"MEAN_MOTION_DDOT":0},{"OBJECT_NAME":"STARLINK-36859","OBJECT_ID":"2026-081M","EPOCH":"2026-04-23T12:30:15.745248","MEAN_MOTION":15.85095175,"ECCENTRICITY":1.45e-5,"INCLINATION":53.1601,"RA_OF_ASC_NODE":196.1782,"ARG_OF_PERICENTER":50.193,"MEAN_ANOMALY":309.9107,"EPHEMERIS_TYPE":0,"CLASSIFICATION_TYPE":"U","NORAD_CAT_ID":68710,"ELEMENT_SET_NO":999,"REV_AT_EPOCH":146,"BSTAR":-0.0029355,"MEAN_MOTION_DOT":-0.00657054,"MEAN_MOTION_DDOT":0},{"OBJECT_NAME":"STARLINK-37320","OBJECT_ID":"2026-081N","EPOCH":"2026-04-23T17:01:52.610016","MEAN_MOTION":15.84434713,"ECCENTRICITY":0.0002706,"INCLINATION":53.1601,"RA_OF_ASC_NODE":195.2217,"ARG_OF_PERICENTER":38.9039,"MEAN_ANOMALY":321.2179,"EPHEMERIS_TYPE":0,"CLASSIFICATION_TYPE":"U","NORAD_CAT_ID":68711,"ELEMENT_SET_NO":999,"REV_AT_EPOCH":149,"BSTAR":-0.0034699,"MEAN_MOTION_DOT":-0.00745406,"MEAN_MOTION_DDOT":0},{"OBJECT_NAME":"STARLINK-37318","OBJECT_ID":"2026-081P","EPOCH":"2026-04-23T13:59:18.501792","MEAN_MOTION":15.85207139,"ECCENTRICITY":0.00011196,"INCLINATION":53.1598,"RA_OF_ASC_NODE":195.8542,"ARG_OF_PERICENTER":49.3573,"MEAN_ANOMALY":310.7549,"EPHEMERIS_TYPE":0,"CLASSIFICATION_TYPE":"U","NORAD_CAT_ID":68712,"ELEMENT_SET_NO":999,"REV_AT_EPOCH":147,"BSTAR":-0.0032420821,"MEAN_MOTION_DOT":-0.00724257,"MEAN_MOTION_DDOT":0},{"OBJECT_NAME":"STARLINK-37305","OBJECT_ID":"2026-081Q","EPOCH":"2026-04-23T17:00:02.431008","MEAN_MOTION":15.85035004,"ECCENTRICITY":8.61e-5,"INCLINATION":53.1596,"RA_OF_ASC_NODE":195.2121,"ARG_OF_PERICENTER":347.114,"MEAN_ANOMALY":12.9863,"EPHEMERIS_TYPE":0,"CLASSIFICATION_TYPE":"U","NORAD_CAT_ID":68713,"ELEMENT_SET_NO":999,"REV_AT_EPOCH":149,"BSTAR":-0.0020478,"MEAN_MOTION_DOT":-0.00467223,"MEAN_MOTION_DDOT":0},{"OBJECT_NAME":"STARLINK-37225","OBJECT_ID":"2026-081R","EPOCH":"2026-04-23T16:59:07.973088","MEAN_MOTION":15.85059436,"ECCENTRICITY":0.000222,"INCLINATION":53.1605,"RA_OF_ASC_NODE":195.2077,"ARG_OF_PERICENTER":42.6323,"MEAN_ANOMALY":317.4873,"EPHEMERIS_TYPE":0,"CLASSIFICATION_TYPE":"U","NORAD_CAT_ID":68714,"ELEMENT_SET_NO":999,"REV_AT_EPOCH":149,"BSTAR":-0.0033643,"MEAN_MOTION_DOT":-0.0074478,"MEAN_MOTION_DDOT":0},{"OBJECT_NAME":"STARLINK-37322","OBJECT_ID":"2026-081S","EPOCH":"2026-04-23T15:27:25.304832","MEAN_MOTION":15.85576043,"ECCENTRICITY":6.968e-5,"INCLINATION":53.1596,"RA_OF_ASC_NODE":195.5218,"ARG_OF_PERICENTER":23.453,"MEAN_ANOMALY":336.6526,"EPHEMERIS_TYPE":0,"CLASSIFICATION_TYPE":"U","NORAD_CAT_ID":68715,"ELEMENT_SET_NO":999,"REV_AT_EPOCH":148,"BSTAR":-0.0028171443,"MEAN_MOTION_DOT":-0.00646383,"MEAN_MOTION_DDOT":0},{"OBJECT_NAME":"STARLINK-36337","OBJECT_ID":"2026-081T","EPOCH":"2026-04-23T16:57:22.075200","MEAN_MOTION":15.85620919,"ECCENTRICITY":0.00040101,"INCLINATION":53.1594,"RA_OF_ASC_NODE":195.1998,"ARG_OF_PERICENTER":22.7121,"MEAN_ANOMALY":337.4081,"EPHEMERIS_TYPE":0,"CLASSIFICATION_TYPE":"U","NORAD_CAT_ID":68716,"ELEMENT_SET_NO":999,"REV_AT_EPOCH":149,"BSTAR":-0.0017053065,"MEAN_MOTION_DOT":-0.00403719,"MEAN_MOTION_DDOT":0},{"OBJECT_NAME":"STARLINK-36685","OBJECT_ID":"2026-081U","EPOCH":"2026-04-23T12:24:13.024224","MEAN_MOTION":15.86446223,"ECCENTRICITY":8.124e-5,"INCLINATION":53.16,"RA_OF_ASC_NODE":196.1504,"ARG_OF_PERICENTER":87.951,"MEAN_ANOMALY":272.1608,"EPHEMERIS_TYPE":0,"CLASSIFICATION_TYPE":"U","NORAD_CAT_ID":68717,"ELEMENT_SET_NO":999,"REV_AT_EPOCH":146,"BSTAR":-0.0029341418,"MEAN_MOTION_DOT":-0.00698407,"MEAN_MOTION_DDOT":0},{"OBJECT_NAME":"STARLINK-36684","OBJECT_ID":"2026-081V","EPOCH":"2026-04-23T16:55:36.200640","MEAN_MOTION":15.85845812,"ECCENTRICITY":7.507e-5,"INCLINATION":53.1599,"RA_OF_ASC_NODE":195.1911,"ARG_OF_PERICENTER":54.584,"MEAN_ANOMALY":305.5255,"EPHEMERIS_TYPE":0,"CLASSIFICATION_TYPE":"U","NORAD_CAT_ID":68718,"ELEMENT_SET_NO":999,"REV_AT_EPOCH":149,"BSTAR":-0.0033568319,"MEAN_MOTION_DOT":-0.00769501,"MEAN_MOTION_DDOT":0},{"OBJECT_NAME":"STARLINK-36686","OBJECT_ID":"2026-081W","EPOCH":"2026-04-23T13:52:23.323008","MEAN_MOTION":15.86713662,"ECCENTRICITY":0.00016484,"INCLINATION":53.1593,"RA_OF_ASC_NODE":195.8196,"ARG_OF_PERICENTER":15.0647,"MEAN_ANOMALY":345.0427,"EPHEMERIS_TYPE":0,"CLASSIFICATION_TYPE":"U","NORAD_CAT_ID":68719,"ELEMENT_SET_NO":999,"REV_AT_EPOCH":147,"BSTAR":-0.0032282699,"MEAN_MOTION_DOT":-0.00772333,"MEAN_MOTION_DDOT":0},{"OBJECT_NAME":"STARLINK-36681","OBJECT_ID":"2026-081X","EPOCH":"2026-04-23T13:53:15.064512","MEAN_MOTION":15.86528464,"ECCENTRICITY":9.97e-5,"INCLINATION":53.1598,"RA_OF_ASC_NODE":195.8242,"ARG_OF_PERICENTER":56.4999,"MEAN_ANOMALY":303.6122,"EPHEMERIS_TYPE":0,"CLASSIFICATION_TYPE":"U","NORAD_CAT_ID":68720,"ELEMENT_SET_NO":999,"REV_AT_EPOCH":147,"BSTAR":-0.003214806,"MEAN_MOTION_DOT":-0.00762741,"MEAN_MOTION_DDOT":0},{"OBJECT_NAME":"STARLINK-36680","OBJECT_ID":"2026-081Y","EPOCH":"2026-04-23T12:20:49.743168","MEAN_MOTION":15.87309485,"ECCENTRICITY":5.305e-5,"INCLINATION":53.16,"RA_OF_ASC_NODE":196.1343,"ARG_OF_PERICENTER":221.3436,"MEAN_ANOMALY":138.755,"EPHEMERIS_TYPE":0,"CLASSIFICATION_TYPE":"U","NORAD_CAT_ID":68721,"ELEMENT_SET_NO":999,"REV_AT_EPOCH":146,"BSTAR":-0.0018092158,"MEAN_MOTION_DOT":-0.00461685,"MEAN_MOTION_DDOT":0}]
